ONEWEB-0423             
1 51627U 22012F   26062.44156492  .00000023  00000+0  26661-4 0  9998
2 51627  87.9149  26.8587 0001756  83.3023 276.8308 13.17650311199770
ONEWEB-0425             
1 51628U 22012G   26062.50521169  .00000636  00000+0  17859-2 0  9990
2 51628  87.8770  57.3080 0001708  76.0461 284.0856 13.10374231195489
ONEWEB-0428             
1 51629U 22012H   26062.48527393 -.00000215  00000+0 -65314-3 0  9998
2 51629  87.8765  57.3252 0001805  87.9905 272.1429 13.10376494195440
ONEWEB-0431             
1 51630U 22012J   26062.53163515 -.00000154  00000+0 -47833-3 0  9996
2 51630  87.8767  57.3009 0002402  98.0756 262.0644 13.10369430195501
ONEWEB-0434             
1 51631U 22012K   26062.50866969  .00000701  00000+0  19714-2 0  9999
2 51631  87.8762  57.3344 0001523  67.6004 292.5285 13.10373340195481
ONEWEB-0435             
1 51632U 22012L   26062.51683242  .00000575  00000+0  16113-2 0  9991
2 51632  87.8760  57.3235 0001726 101.1484 258.9838 13.10371010195471
ONEWEB-0436             
1 51633U 22012M   26062.43312962  .00000053  00000+0  10273-3 0  9994
2 51633  87.9149  26.8388 0001865  88.8611 271.2734 13.17650117199754
ONEWEB-0438             
1 51634U 22012N   26062.50021345 -.00008856  00000+0 -25413-1 0  9996
2 51634  87.8764  57.3274 0001652  71.2701 288.8606 13.10421988195506
ONEWEB-0439             
1 51635U 22012P   26062.50355693  .00000569  00000+0  15931-2 0  9999
2 51635  87.8762  57.3158 0001771  86.7723 273.3607 13.10374260195480
ONEWEB-0442             
1 51636U 22012Q   26062.42554998  .00000050  00000+0  94456-4 0  9996
2 51636  87.9137  26.8801 0001930  63.5592 296.5738 13.17648547199742
ONEWEB-0443             
1 51637U 22012R   26062.44494743  .00000014  00000+0  39249-5 0  9990
2 51637  87.9140  26.8783 0001523  77.8672 282.2630 13.17650878199799
ONEWEB-0444             
1 51638U 22012S   26062.49358234  .00000198  00000+0  52973-3 0  9990
2 51638  87.8767  57.3167 0001791  88.0628 272.0705 13.10376944195496
ONEWEB-0445             
1 51639U 22012T   26062.51517638  .00000563  00000+0  15764-2 0  9991
2 51639  87.8773  57.2909 0002092  87.4305 272.7061 13.10371258195504
ONEWEB-0446             
1 51640U 22012U   26062.49191814  .00000109  00000+0  27607-3 0  9990
2 51640  87.8766  57.3333 0001996  85.8980 274.2375 13.10376959195488
ONEWEB-0448             
1 51641U 22012V   26062.49690508  .00000429  00000+0  11936-2 0  9997
2 51641  87.8766  57.3306 0001790  88.6766 271.4566 13.10375993195459
ONEWEB-0449             
1 51642U 22012W   26062.42553058  .00000655  00000+0  18396-2 0  9997
2 51642  87.8773  57.3226 0001632  73.2519 286.8787 13.10374669195454
ONEWEB-0451             
1 51643U 22012X   26062.42976840  .00000044  00000+0  81183-4 0  9994
2 51643  87.9148  26.8347 0001783  79.0939 281.0393 13.17648914199733
