[{"OBJECT_NAME":"ONEWEB-0423","OBJECT_ID":"2022-012F","EPOCH":"2026-03-03T10:35:51.209088","MEAN_MOTION":13.17650311,"ECCENTRICITY":0.00017567,"INCLINATION":87.9149,"RA_OF_ASC_NODE":26.8587,"ARG_OF_PERICENTER":83.3023,"MEAN_ANOMALY":276.8308,"EPHEMERIS_TYPE":0,"CLASSIFICATION_TYPE":"U","NORAD_CAT_ID":51627,"ELEMENT_SET_NO":999,"REV_AT_EPOCH":19977,"BSTAR":2.6661257e-5,"MEAN_MOTION_DOT":2.3e-7,"MEAN_MOTION_DDOT":0},{"OBJECT_NAME":"ONEWEB-0425","OBJECT_ID":"2022-012G","EPOCH":"2026-03-03T12:07:30.290016","MEAN_MOTION":13.10374231,"ECCENTRICITY":0.00017083,"INCLINATION":87.877,"RA_OF_ASC_NODE":57.308,"ARG_OF_PERICENTER":76.0461,"MEAN_ANOMALY":284.0856,"EPHEMERIS_TYPE":0,"CLASSIFICATION_TYPE":"U","NORAD_CAT_ID":51628,"ELEMENT_SET_NO":999,"REV_AT_EPOCH":19548,"BSTAR":0.0017859414,"MEAN_MOTION_DOT":6.36e-6,"MEAN_MOTION_DDOT":0},{"OBJECT_NAME":"ONEWEB-0428","OBJECT_ID":"2022-012H","EPOCH":"2026-03-03T11:38:47.667552","MEAN_MOTION":13.10376494,"ECCENTRICITY":0.00018059,"INCLINATION":87.8765,"RA_OF_ASC_NODE":57.3252,"ARG_OF_PERICENTER":87.9905,"MEAN_ANOMALY":272.1429,"EPHEMERIS_TYPE":0,"CLASSIFICATION_TYPE":"U","NORAD_CAT_ID":51629,"ELEMENT_SET_NO":999,"REV_AT_EPOCH":19544,"BSTAR":-0.00065313705,"MEAN_MOTION_DOT":-2.15e-6,"MEAN_MOTION_DDOT":0},{"OBJECT_NAME":"ONEWEB-0431","OBJECT_ID":"2022-012J","EPOCH":"2026-03-03T12:45:33.277824","MEAN_MOTION":13.1036943,"ECCENTRICITY":0.00024015,"INCLINATION":87.8767,"RA_OF_ASC_NODE":57.3009,"ARG_OF_PERICENTER":98.0756,"MEAN_ANOMALY":262.0644,"EPHEMERIS_TYPE":0,"CLASSIFICATION_TYPE":"U","NORAD_CAT_ID":51630,"ELEMENT_SET_NO":999,"REV_AT_EPOCH":19550,"BSTAR":-0.0004783292,"MEAN_MOTION_DOT":-1.54e-6,"MEAN_MOTION_DDOT":0},{"OBJECT_NAME":"ONEWEB-0434","OBJECT_ID":"2022-012K","EPOCH":"2026-03-03T12:12:29.062080","MEAN_MOTION":13.1037334,"ECCENTRICITY":0.00015233,"INCLINATION":87.8762,"RA_OF_ASC_NODE":57.3344,"ARG_OF_PERICENTER":67.6004,"MEAN_ANOMALY":292.5285,"EPHEMERIS_TYPE":0,"CLASSIFICATION_TYPE":"U","NORAD_CAT_ID":51631,"ELEMENT_SET_NO":999,"REV_AT_EPOCH":19548,"BSTAR":0.0019713716,"MEAN_MOTION_DOT":7.01e-6,"MEAN_MOTION_DDOT":0},{"OBJECT_NAME":"ONEWEB-0435","OBJECT_ID":"2022-012L","EPOCH":"2026-03-03T12:24:14.321088","MEAN_MOTION":13.1037101,"ECCENTRICITY":0.0001726,"INCLINATION":87.876,"RA_OF_ASC_NODE":57.3235,"ARG_OF_PERICENTER":101.1484,"MEAN_ANOMALY":258.9838,"EPHEMERIS_TYPE":0,"CLASSIFICATION_TYPE":"U","NORAD_CAT_ID":51632,"ELEMENT_SET_NO":999,"REV_AT_EPOCH":19547,"BSTAR":0.0016112775,"MEAN_MOTION_DOT":5.75e-6,"MEAN_MOTION_DDOT":0},{"OBJECT_NAME":"ONEWEB-0436","OBJECT_ID":"2022-012M","EPOCH":"2026-03-03T10:23:42.399168","MEAN_MOTION":13.17650117,"ECCENTRICITY":0.0001865,"INCLINATION":87.9149,"RA_OF_ASC_NODE":26.8388,"ARG_OF_PERICENTER":88.8611,"MEAN_ANOMALY":271.2734,"EPHEMERIS_TYPE":0,"CLASSIFICATION_TYPE":"U","NORAD_CAT_ID":51633,"ELEMENT_SET_NO":999,"REV_AT_EPOCH":19975,"BSTAR":0.00010273074,"MEAN_MOTION_DOT":5.3e-7,"MEAN_MOTION_DDOT":0},{"OBJECT_NAME":"ONEWEB-0438","OBJECT_ID":"2022-012N","EPOCH":"2026-03-03T12:00:18.442080","MEAN_MOTION":13.10421988,"ECCENTRICITY":0.00016525,"INCLINATION":87.8764,"RA_OF_ASC_NODE":57.3274,"ARG_OF_PERICENTER":71.2701,"MEAN_ANOMALY":288.8606,"EPHEMERIS_TYPE":0,"CLASSIFICATION_TYPE":"U","NORAD_CAT_ID":51634,"ELEMENT_SET_NO":999,"REV_AT_EPOCH":19550,"BSTAR":-0.025412704,"MEAN_MOTION_DOT":-8.856e-5,"MEAN_MOTION_DDOT":0},{"OBJECT_NAME":"ONEWEB-0439","OBJECT_ID":"2022-012P","EPOCH":"2026-03-03T12:05:07.318752","MEAN_MOTION":13.1037426,"ECCENTRICITY":0.00017713,"INCLINATION":87.8762,"RA_OF_ASC_NODE":57.3158,"ARG_OF_PERICENTER":86.7723,"MEAN_ANOMALY":273.3607,"EPHEMERIS_TYPE":0,"CLASSIFICATION_TYPE":"U","NORAD_CAT_ID":51635,"ELEMENT_SET_NO":999,"REV_AT_EPOCH":19548,"BSTAR":0.0015930534,"MEAN_MOTION_DOT":5.69e-6,"MEAN_MOTION_DDOT":0},{"OBJECT_NAME":"ONEWEB-0442","OBJECT_ID":"2022-012Q","EPOCH":"2026-03-03T10:12:47.518272","MEAN_MOTION":13.17648547,"ECCENTRICITY":0.00019305,"INCLINATION":87.9137,"RA_OF_ASC_NODE":26.8801,"ARG_OF_PERICENTER":63.5592,"MEAN_ANOMALY":296.5738,"EPHEMERIS_TYPE":0,"CLASSIFICATION_TYPE":"U","NORAD_CAT_ID":51636,"ELEMENT_SET_NO":999,"REV_AT_EPOCH":19974,"BSTAR":9.4455517e-5,"MEAN_MOTION_DOT":5.0e-7,"MEAN_MOTION_DDOT":0},{"OBJECT_NAME":"ONEWEB-0443","OBJECT_ID":"2022-012R","EPOCH":"2026-03-03T10:40:43.457952","MEAN_MOTION":13.17650878,"ECCENTRICITY":0.00015236,"INCLINATION":87.914,"RA_OF_ASC_NODE":26.8783,"ARG_OF_PERICENTER":77.8672,"MEAN_ANOMALY":282.263,"EPHEMERIS_TYPE":0,"CLASSIFICATION_TYPE":"U","NORAD_CAT_ID":51637,"ELEMENT_SET_NO":999,"REV_AT_EPOCH":19979,"BSTAR":3.924924e-6,"MEAN_MOTION_DOT":1.4e-7,"MEAN_MOTION_DDOT":0},{"OBJECT_NAME":"ONEWEB-0444","OBJECT_ID":"2022-012S","EPOCH":"2026-03-03T11:50:45.514176","MEAN_MOTION":13.10376944,"ECCENTRICITY":0.00017911,"INCLINATION":87.8767,"RA_OF_ASC_NODE":57.3167,"ARG_OF_PERICENTER":88.0628,"MEAN_ANOMALY":272.0705,"EPHEMERIS_TYPE":0,"CLASSIFICATION_TYPE":"U","NORAD_CAT_ID":51638,"ELEMENT_SET_NO":999,"REV_AT_EPOCH":19549,"BSTAR":0.00052973094,"MEAN_MOTION_DOT":1.98e-6,"MEAN_MOTION_DDOT":0},{"OBJECT_NAME":"ONEWEB-0445","OBJECT_ID":"2022-012T","EPOCH":"2026-03-03T12:21:51.239232","MEAN_MOTION":13.10371258,"ECCENTRICITY":0.00020923,"INCLINATION":87.8773,"RA_OF_ASC_NODE":57.2909,"ARG_OF_PERICENTER":87.4305,"MEAN_ANOMALY":272.7061,"EPHEMERIS_TYPE":0,"CLASSIFICATION_TYPE":"U","NORAD_CAT_ID":51639,"ELEMENT_SET_NO":999,"REV_AT_EPOCH":19550,"BSTAR":0.0015764012,"MEAN_MOTION_DOT":5.63e-6,"MEAN_MOTION_DDOT":0},{"OBJECT_NAME":"ONEWEB-0446","OBJECT_ID":"2022-012U","EPOCH":"2026-03-03T11:48:21.727296","MEAN_MOTION":13.10376959,"ECCENTRICITY":0.00019964,"INCLINATION":87.8766,"RA_OF_ASC_NODE":57.3333,"ARG_OF_PERICENTER":85.898,"MEAN_ANOMALY":274.2375,"EPHEMERIS_TYPE":0,"CLASSIFICATION_TYPE":"U","NORAD_CAT_ID":51640,"ELEMENT_SET_NO":999,"REV_AT_EPOCH":19548,"BSTAR":0.00027607443,"MEAN_MOTION_DOT":1.09e-6,"MEAN_MOTION_DDOT":0},{"OBJECT_NAME":"ONEWEB-0448","OBJECT_ID":"2022-012V","EPOCH":"2026-03-03T11:55:32.598912","MEAN_MOTION":13.10375993,"ECCENTRICITY":0.000179,"INCLINATION":87.8766,"RA_OF_ASC_NODE":57.3306,"ARG_OF_PERICENTER":88.6766,"MEAN_ANOMALY":271.4566,"EPHEMERIS_TYPE":0,"CLASSIFICATION_TYPE":"U","NORAD_CAT_ID":51641,"ELEMENT_SET_NO":999,"REV_AT_EPOCH":19545,"BSTAR":0.0011936179,"MEAN_MOTION_DOT":4.29e-6,"MEAN_MOTION_DDOT":0},{"OBJECT_NAME":"ONEWEB-0449","OBJECT_ID":"2022-012W","EPOCH":"2026-03-03T10:12:45.842112","MEAN_MOTION":13.10374669,"ECCENTRICITY":0.00016322,"INCLINATION":87.8773,"RA_OF_ASC_NODE":57.3226,"ARG_OF_PERICENTER":73.2519,"MEAN_ANOMALY":286.8787,"EPHEMERIS_TYPE":0,"CLASSIFICATION_TYPE":"U","NORAD_CAT_ID":51642,"ELEMENT_SET_NO":999,"REV_AT_EPOCH":19545,"BSTAR":0.0018396491,"MEAN_MOTION_DOT":6.55e-6,"MEAN_MOTION_DDOT":0},{"OBJECT_NAME":"ONEWEB-0451","OBJECT_ID":"2022-012X","EPOCH":"2026-03-03T10:18:51.989760","MEAN_MOTION":13.17648914,"ECCENTRICITY":0.00017839,"INCLINATION":87.9148,"RA_OF_ASC_NODE":26.8347,"ARG_OF_PERICENTER":79.0939,"MEAN_ANOMALY":281.0393,"EPHEMERIS_TYPE":0,"CLASSIFICATION_TYPE":"U","NORAD_CAT_ID":51643,"ELEMENT_SET_NO":999,"REV_AT_EPOCH":19973,"BSTAR":8.1182609e-5,"MEAN_MOTION_DOT":4.4e-7,"MEAN_MOTION_DDOT":0}]
